{
    "links": {
        "self": "http://www.neowsapp.com/rest/v1/neo/3257024?api_key=iIulBulltgU6a56xZRHN4H3l9WmuAYTsLGpBGhQ2"
    },
    "id": "3257024",
    "neo_reference_id": "3257024",
    "name": "(2004 TC18)",
    "designation": "2004 TC18",
    "nasa_jpl_url": "http://ssd.jpl.nasa.gov/sbdb.cgi?sstr=3257024",
    "absolute_magnitude_h": 24.0,
    "estimated_diameter": {
        "kilometers": {
            "estimated_diameter_min": 0.0421264611,
            "estimated_diameter_max": 0.0941976306
        },
        "meters": {
            "estimated_diameter_min": 42.1264610556,
            "estimated_diameter_max": 94.1976305719
        },
        "miles": {
            "estimated_diameter_min": 0.0261761612,
            "estimated_diameter_max": 0.0585316759
        },
        "feet": {
            "estimated_diameter_min": 138.2101784897,
            "estimated_diameter_max": 309.0473542854
        }
    },
    "is_potentially_hazardous_asteroid": false,
    "close_approach_data": [
        {
            "close_approach_date": "1941-05-05",
            "close_approach_date_full": "1941-May-05 11:18",
            "epoch_date_close_approach": -904394520000,
            "relative_velocity": {
                "kilometers_per_second": "17.6759410803",
                "kilometers_per_hour": "63633.3878890364",
                "miles_per_hour": "39539.312602496"
            },
            "miss_distance": {
                "astronomical": "0.261894288",
                "lunar": "101.876878032",
                "kilometers": "39178827.64996656",
                "miles": "24344594.627836128"
            },
            "orbiting_body": "Earth"
        },
        {
            "close_approach_date": "1998-04-29",
            "close_approach_date_full": "1998-Apr-29 20:19",
            "epoch_date_close_approach": 893881140000,
            "relative_velocity": {
                "kilometers_per_second": "21.7630467881",
                "kilometers_per_hour": "78346.9684371197",
                "miles_per_hour": "48681.7593602758"
            },
            "miss_distance": {
                "astronomical": "0.3987268656",
                "lunar": "155.1047507184",
                "kilometers": "59648689.805536272",
                "miles": "37063977.1657016736"
            },
            "orbiting_body": "Earth"
        },
        {
            "close_approach_date": "2004-10-09",
            "close_approach_date_full": "2004-Oct-09 19:05",
            "epoch_date_close_approach": 1097348700000,
            "relative_velocity": {
                "kilometers_per_second": "10.9944041162",
                "kilometers_per_hour": "39579.8548182329",
                "miles_per_hour": "24593.3825674736"
            },
            "miss_distance": {
                "astronomical": "0.0295334757",
                "lunar": "11.4885220473",
                "kilometers": "4418145.058416759",
                "miles": "2745308.0376749142"
            },
            "orbiting_body": "Earth"
        },
        {
            "close_approach_date": "2055-05-18",
            "close_approach_date_full": "2055-May-18 23:02",
            "epoch_date_close_approach": 2694294120000,
            "relative_velocity": {
                "kilometers_per_second": "11.1610452278",
                "kilometers_per_hour": "40179.7628201747",
                "miles_per_hour": "24966.1420701247"
            },
            "miss_distance": {
                "astronomical": "0.0862212048",
                "lunar": "33.5400486672",
                "kilometers": "12898508.586913776",
                "miles": "8014761.5864750688"
            },
            "orbiting_body": "Earth"
        },
        {
            "close_approach_date": "2129-05-22",
            "close_approach_date_full": "2129-May-22 19:51",
            "epoch_date_close_approach": 5029847460000,
            "relative_velocity": {
                "kilometers_per_second": "9.9762613552",
                "kilometers_per_hour": "35914.5408786891",
                "miles_per_hour": "22315.8990254277"
            },
            "miss_distance": {
                "astronomical": "0.0898489167",
                "lunar": "34.9512285963",
                "kilometers": "13441206.560127429",
                "miles": "8351978.4700753602"
            },
            "orbiting_body": "Earth"
        }
    ],
    "orbital_data": {
        "orbit_id": "8",
        "orbit_determination_date": "2017-04-06 09:11:59",
        "first_observation_date": "2004-10-12",
        "last_observation_date": "2004-10-20",
        "data_arc_in_days": 8,
        "observations_used": 32,
        "orbit_uncertainty": "8",
        "minimum_orbit_intersection": ".0289056",
        "jupiter_tisserand_invariant": "4.831",
        "epoch_osculation": "2453294.5",
        "eccentricity": ".3635702969029753",
        "semi_major_axis": "1.334963036981471",
        "inclination": "8.379153528436024",
        "ascending_node_longitude": "206.5927435462945",
        "orbital_period": "563.3811192725831",
        "perihelion_distance": ".8496101292716201",
        "perihelion_argument": "103.3639662518635",
        "aphelion_distance": "1.820315944691322",
        "perihelion_time": "2453237.227612460307",
        "mean_anomaly": "36.59700122877877",
        "mean_motion": ".6389990499944669",
        "equinox": "J2000",
        "orbit_class": {
            "orbit_class_type": "APO",
            "orbit_class_description": "Near-Earth asteroid orbits which cross the Earth’s orbit similar to that of 1862 Apollo",
            "orbit_class_range": "a (semi-major axis) > 1.0 AU; q (perihelion) < 1.017 AU"
        }
    },
    "is_sentry_object": false
}